NORAD_CAT_ID,OBJECT_NAME,OBJECT_TYPE,EPOCH,MEAN_MOTION,ECCENTRICITY,INCLINATION,RA_OF_ASC_NODE,ARG_OF_PERICENTER,MEAN_ANOMALY,BSTAR,MEAN_MOTION_DOT,MEAN_MOTION_DDOT,TLE_LINE0,TLE_LINE1,TLE_LINE2,SEMIMAJOR_AXIS,PERIOD,APOGEE,PERIGEE,DECAYED
55785.0,STARLINK-5818,PAYLOAD,2024-07-29 19:26:26,14.98329085,0.0003216,69.9982,246.8652,267.2747,92.8044,9.7528e-06,2.3e-07,0.0,0 STARLINK-5818,1 55785U 23028AW  24211.81002613  .00000023  00000-0  97528-5 0  9997,2 55785  69.9982 246.8652 0003216 267.2747  92.8044 14.98329085 78961,6950.196,96.107,574.296,569.826,0.0
55785.0,STARLINK-5818,PAYLOAD,2024-07-30 05:03:14,14.98330282,0.0003257,69.998,245.855,267.6725,92.4061,1.8991e-05,1.34e-06,0.0,0 STARLINK-5818,1 55785U 23028AW  24212.21058511  .00000134  00000-0  18991-4 0  9999,2 55785  69.9980 245.8550 0003257 267.6725  92.4061 14.98330282 79013,6950.192,96.107,574.321,569.793,0.0
55785.0,STARLINK-5818,PAYLOAD,2024-07-30 09:51:38,14.98330742,0.000327,69.9979,245.3496,269.6888,90.3896,2.4472e-05,1.99e-06,0.0,0 STARLINK-5818,1 55785U 23028AW  24212.41086472  .00000199  00000-0  24472-4 0  9990,2 55785  69.9979 245.3496 0003270 269.6888  90.3896 14.98330742 79050,6950.191,96.107,574.328,569.783,0.0
55785.0,STARLINK-5818,PAYLOAD,2024-07-30 19:28:27,14.98331169,0.000327,69.9979,244.3396,269.6576,90.4208,3.3873e-05,3.11e-06,0.0,0 STARLINK-5818,1 55785U 23028AW  24212.81142385  .00000311  00000-0  33873-4 0  9991,2 55785  69.9979 244.3396 0003270 269.6576  90.4208 14.98331169 79111,6950.189,96.107,574.327,569.782,0.0
55785.0,STARLINK-5818,PAYLOAD,2024-07-31 05:05:15,14.98329015,0.0003274,69.9977,243.3295,269.3234,90.7549,7.2623e-06,-6e-08,0.0,0 STARLINK-5818,1 55785U 23028AW  24213.21198585 -.00000006  00000-0  72623-5 0  9998,2 55785  69.9977 243.3295 0003274 269.3234  90.7549 14.98329015 79161,6950.196,96.107,574.336,569.785,0.0
55785.0,STARLINK-5818,PAYLOAD,2024-07-31 11:29:47,14.98329086,0.000328,69.9978,242.6562,268.8107,91.2676,6.0426e-06,-2.1e-07,0.0,0 STARLINK-5818,1 55785U 23028AW  24213.47902572 -.00000021  00000-0  60426-5 0  9990,2 55785  69.9978 242.6562 0003280 268.8107  91.2676 14.98329086 79212,6950.196,96.107,574.34,569.781,0.0
55785.0,STARLINK-5818,PAYLOAD,2024-08-01 11:31:48,14.98332693,0.00033,69.9977,240.131,268.4676,91.6105,2.1296e-05,1.61e-06,0.0,0 STARLINK-5818,1 55785U 23028AW  24214.48042201  .00000161  00000-0  21296-4 0  9991,2 55785  69.9977 240.1310 0003300 268.4676  91.6105 14.98332693 79360,6950.185,96.107,574.343,569.756,0.0
55785.0,STARLINK-5818,PAYLOAD,2024-08-01 19:32:28,14.98331268,0.0003355,69.9975,239.289,268.535,91.5424,-8.3776e-06,-1.93e-06,0.0,0 STARLINK-5818,1 55785U 23028AW  24214.81422279 -.00000193  00000-0 -83776-5 0  9994,2 55785  69.9975 239.2890 0003355 268.5350  91.5424 14.98331268 79416,6950.189,96.107,574.386,569.722,0.0
55785.0,STARLINK-5818,PAYLOAD,2024-08-02 05:09:17,14.98329322,0.0003357,69.9974,238.2788,268.0872,91.9902,1.6365e-05,1.02e-06,0.0,0 STARLINK-5818,1 55785U 23028AW  24215.21478305  .00000102  00000-0  16365-4 0  9997,2 55785  69.9974 238.2788 0003357 268.0872  91.9902 14.98329322 79464,6950.195,96.107,574.393,569.727,0.0
55785.0,STARLINK-5818,PAYLOAD,2024-08-02 11:33:49,14.98330955,0.0003371,69.9976,237.6058,268.9416,91.1357,7.9302e-06,2e-08,0.0,0 STARLINK-5818,1 55785U 23028AW  24215.48182224  .00000002  00000-0  79302-5 0  9998,2 55785  69.9976 237.6058 0003371 268.9416  91.1357 14.98330955 79514,6950.19,96.107,574.398,569.712,0.0
55785.0,STARLINK-5818,PAYLOAD,2024-08-03 05:11:18,14.98331799,0.0003312,69.9979,235.754,269.5407,90.5372,-4.412e-06,-1.46e-06,0.0,0 STARLINK-5818,1 55785U 23028AW  24216.21618157 -.00000146  00000-0 -44120-5 0  9990,2 55785  69.9979 235.7540 0003312 269.5407  90.5372 14.98331799 79612,6950.187,96.107,574.354,569.75,0.0
55785.0,STARLINK-5818,PAYLOAD,2024-08-03 11:35:50,14.98331799,0.0003336,69.9979,235.0808,269.6699,90.4078,-6.7525e-06,-1.74e-06,0.0,0 STARLINK-5818,1 55785U 23028AW  24216.48322130 -.00000174  00000-0 -67525-5 0  9997,2 55785  69.9979 235.0808 0003336 269.6699  90.4078 14.98331799 79669,6950.187,96.107,574.371,569.734,0.0
55785.0,STARLINK-5818,PAYLOAD,2024-08-03 18:00:22,14.98330211,0.0003321,69.998,234.4075,269.8129,90.2649,-1.8424e-05,-3.13e-06,0.0,0 STARLINK-5818,1 55785U 23028AW  24216.75026237 -.00000313  00000-0 -18424-4 0  9994,2 55785  69.9980 234.4075 0003321 269.8129  90.2649 14.98330211 79709,6950.192,96.107,574.365,569.749,0.0
55785.0,STARLINK-5818,PAYLOAD,2024-08-04 11:37:51,14.98328803,0.0003288,69.9981,232.5562,269.062,91.0162,7.9802e-06,2e-08,0.0,0 STARLINK-5818,1 55785U 23028AW  24217.48462302  .00000002  00000-0  79802-5 0  9993,2 55785  69.9981 232.5562 0003288 269.0620  91.0162 14.98328803 79804,6950.197,96.107,574.347,569.776,0.0
55785.0,STARLINK-5818,PAYLOAD,2024-08-04 18:02:23,14.98330106,0.0003293,69.9982,231.8828,269.2687,90.8095,1.4391e-05,7.9e-07,0.0,0 STARLINK-5818,1 55785U 23028AW  24217.75166197  .00000079  00000-0  14391-4 0  9991,2 55785  69.9982 231.8828 0003293 269.2687  90.8095 14.98330106 79859,6950.193,96.107,574.346,569.769,0.0
55785.0,STARLINK-5818,PAYLOAD,2024-08-05 06:51:27,14.98334523,0.0003312,69.9981,230.5361,269.7505,90.3275,5.9402e-05,6.16e-06,0.0,0 STARLINK-5818,1 55785U 23028AW  24218.28573702  .00000616  00000-0  59402-4 0  9993,2 55785  69.9981 230.5361 0003312 269.7505  90.3275 14.98334523 79922,6950.179,96.107,574.346,569.742,0.0
55785.0,STARLINK-5818,PAYLOAD,2024-08-05 18:04:24,14.98330328,0.0003265,69.9982,229.3578,269.3048,90.7737,1.6128e-05,9.9e-07,0.0,0 STARLINK-5818,1 55785U 23028AW  24218.75305974  .00000099  00000-0  16128-4 0  9992,2 55785  69.9982 229.3578 0003265 269.3048  90.7737 14.98330328 80001,6950.192,96.107,574.326,569.788,0.0
55785.0,STARLINK-5818,PAYLOAD,2024-08-06 05:17:21,14.98324425,0.0003251,69.9982,228.1793,268.6867,91.392,-3.1511e-05,-4.69e-06,0.0,0 STARLINK-5818,1 55785U 23028AW  24219.22038518 -.00000469  00000-0 -31511-4 0  9998,2 55785  69.9982 228.1793 0003251 268.6867  91.3920 14.98324425 80061,6950.21,96.107,574.335,569.816,0.0
55785.0,STARLINK-5818,PAYLOAD,2024-08-06 08:29:37,14.98324506,0.0003252,69.9983,227.8429,267.7331,92.3456,-2.9639e-05,-4.47e-06,0.0,0 STARLINK-5818,1 55785U 23028AW  24219.35390528 -.00000447  00000-0 -29639-4 0  9998,2 55785  69.9983 227.8429 0003252 267.7331  92.3456 14.98324506 80099,6950.21,96.107,574.335,569.815,0.0
55785.0,STARLINK-5818,PAYLOAD,2024-08-06 18:06:25,14.98327696,0.0003269,69.9983,226.8328,267.6735,92.405,-1.1901e-05,-2.35e-06,0.0,0 STARLINK-5818,1 55785U 23028AW  24219.75446347 -.00000235  00000-0 -11901-4 0  9991,2 55785  69.9983 226.8328 0003269 267.6735  92.4050 14.98327696 80152,6950.2,96.107,574.337,569.793,0.0
55785.0,STARLINK-5818,PAYLOAD,2024-08-07 03:43:13,14.98332392,0.0003281,69.9984,225.823,267.8432,92.2352,-1.3802e-05,-2.58e-06,0.0,0 STARLINK-5818,1 55785U 23028AW  24220.15502026 -.00000258  00000-0 -13802-4 0  9991,2 55785  69.9984 225.8230 0003281 267.8432  92.2352 14.98332392 80202,6950.185,96.107,574.331,569.77,0.0
55785.0,STARLINK-5818,PAYLOAD,2024-08-08 10:09:46,14.9833089,0.0003351,69.9984,222.6248,267.3952,92.6823,8.1302e-05,8.77e-06,0.0,0 STARLINK-5818,1 55785U 23028AW  24221.42345773  .00000877  00000-0  81302-4 0  9991,2 55785  69.9984 222.6248 0003351 267.3952  92.6823 14.98330890 80406,6950.19,96.107,574.384,569.726,0.0
55785.0,STARLINK-5818,PAYLOAD,2024-08-09 10:11:47,14.98332438,0.0003213,69.9987,220.1008,263.5815,96.4978,6.9864e-06,-1e-07,0.0,0 STARLINK-5818,1 55785U 23028AW  24222.42485783 -.00000010  00000-0  69864-5 0  9998,2 55785  69.9987 220.1008 0003213 263.5815  96.4978 14.98332438 80547,6950.185,96.107,574.283,569.817,0.0
55785.0,STARLINK-5818,PAYLOAD,2024-08-09 16:36:20,14.98331451,0.000319,69.999,219.4261,268.8049,91.2745,2.0053e-06,-6.9e-07,0.0,0 STARLINK-5818,1 55785U 23028AW  24222.69189896 -.00000069  00000-0  20053-5 0  9994,2 55785  69.9990 219.4261 0003190 268.8049  91.2745 14.98331451 80598,6950.188,96.107,574.271,569.836,0.0
55785.0,STARLINK-5818,PAYLOAD,2024-08-10 10:13:48,14.98331569,0.0003301,69.9986,217.5748,271.9958,88.0823,6.512e-05,6.84e-06,0.0,0 STARLINK-5818,1 55785U 23028AW  24223.42625630  .00000684  00000-0  65120-4 0  9992,2 55785  69.9986 217.5748 0003301 271.9958  88.0823 14.98331569 80692,6950.188,96.107,574.347,569.759,0.0
55785.0,STARLINK-5818,PAYLOAD,2024-08-11 16:40:21,14.98336673,0.0003174,69.9988,214.3773,267.8944,92.1851,-8.2113e-05,-1.073e-05,0.0,0 STARLINK-5818,1 55785U 23028AW  24224.69469612 -.00001073  00000-0 -82113-4 0  9994,2 55785  69.9988 214.3773 0003174 267.8944  92.1851 14.98336673 80883,6950.172,96.107,574.243,569.831,0.0
55785.0,STARLINK-5818,PAYLOAD,2024-08-12 08:41:42,14.98334605,0.0002996,69.999,212.6941,269.7638,90.3178,6.8938e-05,7.3e-06,0.0,0 STARLINK-5818,1 55785U 23028AW  24225.36229324  .00000730  00000-0  68938-4 0  9999,2 55785  69.9990 212.6941 0002996 269.7638  90.3178 14.98334605 80993,6950.179,96.107,574.126,569.961,0.0
55785.0,STARLINK-5818,PAYLOAD,2024-08-12 16:42:22,14.9833728,0.0003172,69.9987,211.8524,267.6874,92.3922,5.0784e-05,5.13e-06,0.0,0 STARLINK-5818,1 55785U 23028AW  24225.69609041  .00000513  00000-0  50784-4 0  9992,2 55785  69.9987 211.8524 0003172 267.6874  92.3922 14.98337280 81030,6950.17,96.107,574.24,569.831,0.0
55785.0,STARLINK-5818,PAYLOAD,2024-08-13 08:43:42,14.98335116,0.0003092,69.9982,210.1681,269.4986,90.5819,5.3407e-05,5.44e-06,0.0,0 STARLINK-5818,1 55785U 23028AW  24226.36369066  .00000544  00000-0  53407-4 0  9996,2 55785  69.9982 210.1681 0003092 269.4986  90.5819 14.98335116 81149,6950.177,96.107,574.191,569.893,0.0
55785.0,STARLINK-5818,PAYLOAD,2024-08-13 16:44:24,14.98324268,0.0002602,70.0006,209.3244,272.9225,87.1636,-5.7901e-05,-7.84e-06,0.0,0 STARLINK-5818,1 55785U 23028AW  24226.69750204 -.00000784  00000-0 -57901-4 0  9991,2 55785  70.0006 209.3244 0002602 272.9225  87.1636 14.98324268 81184,6950.211,96.107,573.884,570.267,0.0
